DUCHIFAT-3              
1 44854U 19089C   20162.10096665  .00000282  00000-0  29237-4 0  9995
2 44854  36.9653 141.8017 0008798 357.1659   2.9028 14.99064573 27197
ORBITAL FACTORY 2 (OF-2)
1 45113U 19071C   20161.85871401  .00001598  00000-0  60354-4 0  9991
2 45113  51.6454  40.2361 0013415  32.8519 327.3295 15.33330424 19963
